NORAD_CAT_ID,OBJECT_NAME,OBJECT_TYPE,EPOCH,MEAN_MOTION,ECCENTRICITY,INCLINATION,RA_OF_ASC_NODE,ARG_OF_PERICENTER,MEAN_ANOMALY,BSTAR,MEAN_MOTION_DOT,MEAN_MOTION_DDOT,TLE_LINE0,TLE_LINE1,TLE_LINE2,SEMIMAJOR_AXIS,PERIOD,APOGEE,PERIGEE,DECAYED
56772.0,STARLINK-6275,PAYLOAD,2024-06-04 10:19:37,14.98333704,0.0003832,69.9983,186.3174,268.2638,91.8082,8.7222e-05,9.48e-06,0.0,0 STARLINK-6275,1 56772U 23078F   24156.43029607  .00000948  00000-0  87222-4 0  9992,2 56772  69.9983 186.3174 0003832 268.2638  91.8082 14.98333704 55835,6950.181,96.107,574.71,569.383,0.0
56772.0,STARLINK-6275,PAYLOAD,2024-06-04 19:56:26,14.98331885,0.0003808,69.9983,185.3072,268.2798,91.7925,5.9404e-05,6.16e-06,0.0,0 STARLINK-6275,1 56772U 23078F   24156.83085736  .00000616  00000-0  59404-4 0  9994,2 56772  69.9983 185.3072 0003808 268.2798  91.7925 14.98331885 55890,6950.187,96.107,574.699,569.405,0.0
56772.0,STARLINK-6275,PAYLOAD,2024-06-05 11:57:46,14.98331102,0.0003825,69.9983,183.6242,268.2947,91.7774,2.9169e-05,2.55e-06,0.0,0 STARLINK-6275,1 56772U 23078F   24157.49845810  .00000255  00000-0  29169-4 0  9998,2 56772  69.9983 183.6242 0003825 268.2947  91.7774 14.98331102 56250,6950.189,96.107,574.713,569.396,0.0
56772.0,STARLINK-6275,PAYLOAD,2024-06-06 11:59:47,14.9833175,0.0003776,69.9983,181.0993,268.4357,91.637,-1.5164e-05,-2.74e-06,0.0,0 STARLINK-6275,1 56772U 23078F   24158.49985825 -.00000274  00000-0 -15164-4 0  9993,2 56772  69.9983 181.0993 0003776 268.4357  91.6370 14.98331750 56404,6950.187,96.107,574.677,569.428,0.0
56772.0,STARLINK-6275,PAYLOAD,2024-06-07 08:49:32,14.98331365,0.0003749,69.9986,178.9114,268.3655,91.7075,4.6239e-05,4.59e-06,0.0,0 STARLINK-6275,1 56772U 23078F   24159.36773587  .00000459  00000-0  46239-4 0  9990,2 56772  69.9986 178.9114 0003749 268.3655  91.7075 14.98331365 56277,6950.189,96.107,574.659,569.448,0.0
56772.0,STARLINK-6275,PAYLOAD,2024-06-07 18:26:20,14.98331374,0.0003771,69.9986,177.9013,268.9566,91.1161,3.6033e-05,3.37e-06,0.0,0 STARLINK-6275,1 56772U 23078F   24159.76829578  .00000337  00000-0  36033-4 0  9992,2 56772  69.9986 177.9013 0003771 268.9566  91.1161 14.98331374 56591,6950.189,96.107,574.675,569.433,0.0
56772.0,STARLINK-6275,PAYLOAD,2024-06-08 10:27:41,14.98330746,0.0003764,69.9985,176.2182,268.5841,91.4887,3.6193e-05,3.39e-06,0.0,0 STARLINK-6275,1 56772U 23078F   24160.43589590  .00000339  00000-0  36193-4 0  9994,2 56772  69.9985 176.2182 0003764 268.5841  91.4887 14.98330746 56436,6950.191,96.107,574.672,569.44,0.0
56772.0,STARLINK-6275,PAYLOAD,2024-06-08 18:28:21,14.98330056,0.0003803,69.9985,175.3764,269.1219,90.9504,1.3632e-05,7e-07,0.0,0 STARLINK-6275,1 56772U 23078F   24160.76969657  .00000070  00000-0  13632-4 0  9991,2 56772  69.9985 175.3764 0003803 269.1219  90.9504 14.98330056 56740,6950.193,96.107,574.701,569.415,0.0
56772.0,STARLINK-6275,PAYLOAD,2024-06-09 10:29:42,14.98327234,0.0003753,69.9987,173.6934,268.8118,91.2611,-1.6498e-05,-2.9e-06,0.0,0 STARLINK-6275,1 56772U 23078F   24161.43730006 -.00000290  00000-0 -16498-4 0  9999,2 56772  69.9987 173.6934 0003753 268.8118  91.2611 14.98327234 56589,6950.201,96.107,574.675,569.458,0.0
56772.0,STARLINK-6275,PAYLOAD,2024-06-09 18:30:22,14.98328738,0.0003752,69.9987,172.8518,268.7796,91.2933,-3.386e-06,-1.34e-06,0.0,0 STARLINK-6275,1 56772U 23078F   24161.77109917 -.00000134  00000-0 -33860-5 0  9997,2 56772  69.9987 172.8518 0003752 268.7796  91.2933 14.98328738 56899,6950.197,96.107,574.67,569.454,0.0
56772.0,STARLINK-6275,PAYLOAD,2024-06-10 10:31:43,14.98331496,0.0003784,69.9985,171.1683,268.3212,91.7513,3.2852e-05,2.99e-06,0.0,0 STARLINK-6275,1 56772U 23078F   24162.43869621  .00000299  00000-0  32852-4 0  9995,2 56772  69.9985 171.1683 0003784 268.3212  91.7513 14.98331496 56733,6950.188,96.107,574.683,569.423,0.0
56772.0,STARLINK-6275,PAYLOAD,2024-06-11 04:09:12,14.98329761,0.0003773,69.9985,169.3167,268.1138,91.9589,8.5011e-05,9.21e-06,0.0,0 STARLINK-6275,1 56772U 23078F   24163.17305561  .00000921  00000-0  85011-4 0  9992,2 56772  69.9985 169.3167 0003773 268.1138  91.9589 14.98329761 57101,6950.194,96.107,574.681,569.436,0.0
56772.0,STARLINK-6275,PAYLOAD,2024-06-11 10:33:44,14.98331866,0.0003785,69.9984,168.6434,267.987,92.0856,8.0092e-05,8.63e-06,0.0,0 STARLINK-6275,1 56772U 23078F   24163.44009431  .00000863  00000-0  80092-4 0  9998,2 56772  69.9984 168.6434 0003785 267.9870  92.0856 14.98331866 56884,6950.187,96.107,574.683,569.421,0.0
56772.0,STARLINK-6275,PAYLOAD,2024-06-12 04:11:13,14.98330423,0.0003731,69.9984,166.7919,267.7265,92.3467,-1.0365e-05,-2.17e-06,0.0,0 STARLINK-6275,1 56772U 23078F   24164.17445729 -.00000217  00000-0 -10365-4 0  9994,2 56772  69.9984 166.7919 0003731 267.7265  92.3467 14.98330423 57259,6950.192,96.107,574.65,569.463,0.0
56772.0,STARLINK-6275,PAYLOAD,2024-06-12 05:47:21,14.98330555,0.000373,69.9984,166.6236,267.7267,92.3465,-8.832e-06,-1.99e-06,0.0,0 STARLINK-6275,1 56772U 23078F   24164.24121713 -.00000199  00000-0 -88320-5 0  9992,2 56772  69.9984 166.6236 0003730 267.7267  92.3465 14.98330555 57008,6950.191,96.107,574.649,569.464,0.0
56772.0,STARLINK-6275,PAYLOAD,2024-06-12 17:00:17,14.98331006,0.0003691,69.9985,165.4455,267.2866,92.787,5.0574e-06,-3.3e-07,0.0,0 STARLINK-6275,1 56772U 23078F   24164.70853605 -.00000033  00000-0  50574-5 0  9991,2 56772  69.9985 165.4455 0003691 267.2866  92.7870 14.98331006 57078,6950.19,96.107,574.62,569.489,0.0
56772.0,STARLINK-6275,PAYLOAD,2024-06-13 04:13:13,14.98332396,0.0003697,69.9984,164.2672,266.7816,93.292,6.2651e-06,-1.8e-07,0.0,0 STARLINK-6275,1 56772U 23078F   24165.17585448 -.00000018  00000-0  62651-5 0  9992,2 56772  69.9984 164.2672 0003697 266.7816  93.2920 14.98332396 57402,6950.185,96.107,574.62,569.481,0.0
56772.0,STARLINK-6275,PAYLOAD,2024-06-13 10:37:46,14.98332699,0.000368,69.9985,163.5938,267.3655,92.7083,1.0886e-05,3.7e-07,0.0,0 STARLINK-6275,1 56772U 23078F   24165.44289380  .00000037  00000-0  10886-4 0  9990,2 56772  69.9985 163.5938 0003680 267.3655  92.7083 14.98332699 57185,6950.185,96.107,574.607,569.492,0.0
56772.0,STARLINK-6275,PAYLOAD,2024-06-14 10:39:47,14.98327835,0.0003649,69.9986,161.0687,266.9396,93.1345,9.6601e-06,2.2e-07,0.0,0 STARLINK-6275,1 56772U 23078F   24166.44429712  .00000022  00000-0  96601-5 0  9990,2 56772  69.9986 161.0687 0003649 266.9396  93.1345 14.98327835 57331,6950.2,96.107,574.601,569.528,0.0
56772.0,STARLINK-6275,PAYLOAD,2024-06-15 09:05:39,14.98333689,0.0003684,69.9986,158.7124,267.4011,92.6726,3.6144e-05,3.38e-06,0.0,0 STARLINK-6275,1 56772U 23078F   24167.37893182  .00000338  00000-0  36144-4 0  9994,2 56772  69.9986 158.7124 0003684 267.4011  92.6726 14.98333689 57475,6950.181,96.107,574.607,569.486,0.0
56772.0,STARLINK-6275,PAYLOAD,2024-06-16 09:07:40,14.98331115,0.0003668,69.9986,156.1878,267.3331,92.7408,5.3249e-05,5.42e-06,0.0,0 STARLINK-6275,1 56772U 23078F   24168.38033212  .00000542  00000-0  53249-4 0  9998,2 56772  69.9986 156.1878 0003668 267.3331  92.7408 14.98331115 57626,6950.189,96.107,574.604,569.505,0.0
56772.0,STARLINK-6275,PAYLOAD,2024-06-16 17:08:21,14.98330316,0.000368,69.9985,155.3458,267.7319,92.3419,4.5992e-06,-3.8e-07,0.0,0 STARLINK-6275,1 56772U 23078F   24168.71413362 -.00000038  00000-0  45992-5 0  9991,2 56772  69.9985 155.3458 0003680 267.7319  92.3419 14.98330316 57679,6950.192,96.107,574.615,569.499,0.0
56772.0,STARLINK-6275,PAYLOAD,2024-06-17 21:58:46,14.98331964,0.0003636,69.9985,152.316,267.679,92.3953,2.7052e-05,2.3e-06,0.0,0 STARLINK-6275,1 56772U 23078F   24169.91581089  .00000230  00000-0  27052-4 0  9995,2 56772  69.9985 152.3160 0003636 267.6790  92.3953 14.98331964 57852,6950.187,96.107,574.579,569.525,0.0
56772.0,STARLINK-6275,PAYLOAD,2024-06-18 09:11:42,14.98334531,0.0003622,69.9986,151.1377,267.6152,92.4592,5.2209e-05,5.3e-06,0.0,0 STARLINK-6275,1 56772U 23078F   24170.38312774  .00000530  00000-0  52209-4 0  9996,2 56772  69.9986 151.1377 0003622 267.6152  92.4592 14.98334531 58187,6950.179,96.107,574.561,569.527,0.0
56772.0,STARLINK-6275,PAYLOAD,2024-06-18 22:00:47,14.98327344,0.0003548,69.9989,149.7913,268.2563,91.8189,-9.9378e-06,-2.12e-06,0.0,0 STARLINK-6275,1 56772U 23078F   24170.91721369 -.00000212  00000-0 -99378-5 0  9997,2 56772  69.9989 149.7913 0003548 268.2563  91.8189 14.98327344 58009,6950.201,96.107,574.532,569.6,0.0
56772.0,STARLINK-6275,PAYLOAD,2024-06-19 04:25:19,14.98327637,0.0003552,69.9989,149.118,268.037,92.0382,-8.4858e-06,-1.94e-06,0.0,0 STARLINK-6275,1 56772U 23078F   24171.18425366 -.00000194  00000-0 -84858-5 0  9991,2 56772  69.9989 149.1180 0003552 268.0370  92.0382 14.98327637 58304,6950.2,96.107,574.534,569.596,0.0
56772.0,STARLINK-6275,PAYLOAD,2024-06-19 07:37:35,14.9832744,0.0003503,69.999,148.7815,268.043,92.0327,9.2893e-06,1.8e-07,0.0,0 STARLINK-6275,1 56772U 23078F   24171.31777353  .00000018  00000-0  92893-5 0  9993,2 56772  69.9990 148.7815 0003503 268.0430  92.0327 14.98327440 58063,6950.201,96.107,574.5,569.631,0.0
56772.0,STARLINK-6275,PAYLOAD,2024-06-19 22:02:48,14.9833103,0.0003477,69.9991,147.2667,267.9852,92.0909,-1.1471e-05,-2.3e-06,0.0,0 STARLINK-6275,1 56772U 23078F   24171.91861197 -.00000230  00000-0 -11471-4 0  9999,2 56772  69.9991 147.2667 0003477 267.9852  92.0909 14.98331030 58155,6950.19,96.107,574.471,569.638,0.0
56772.0,STARLINK-6275,PAYLOAD,2024-06-20 04:27:20,14.98331457,0.0003488,69.999,146.5934,267.9333,92.1427,-6.0236e-06,-1.65e-06,0.0,0 STARLINK-6275,1 56772U 23078F   24172.18565133 -.00000165  00000-0 -60236-5 0  9991,2 56772  69.9990 146.5934 0003488 267.9333  92.1427 14.98331457 58451,6950.188,96.107,574.478,569.629,0.0
56772.0,STARLINK-6275,PAYLOAD,2024-06-20 07:39:36,14.98332163,0.0003476,69.999,146.2567,268.0227,92.0534,2.4295e-06,-6.4e-07,0.0,0 STARLINK-6275,1 56772U 23078F   24172.31917052 -.00000064  00000-0  24295-5 0  9999,2 56772  69.9990 146.2567 0003476 268.0227  92.0534 14.98332163 58218,6950.186,96.107,574.467,569.635,0.0
